{
  "56377": {
    "noradId": "56377",
    "tle": [
      "1 56377C 23061D   25301.11576389  .00005519  00000+0  40727-3 0  3010",
      "2 56377  43.0018 197.9366 0001356 271.9422 351.5609 15.02526604    10"
    ]
  },
  "56378": {
    "noradId": "56378",
    "tle": [
      "1 56378C 23061E   25301.12062500  .00012540  00000+0  92548-3 0  3017",
      "2 56378  43.0019 197.9606 0001230 265.8990 359.8436 15.02514962    15"
    ]
  },
  "56379": {
    "noradId": "56379",
    "tle": [
      "1 56379C 23061F   25301.12062500 -.00037167  00000+0 -27425-2 0  3013",
      "2 56379  43.0019 197.7660 0001297 263.5335  86.3925 15.02571463    19"
    ]
  },
  "56381": {
    "noradId": "56381",
    "tle": [
      "1 56381C 23061H   25301.11923611  .00009994  00000+0  73727-3 0  3016",
      "2 56381  43.0018 197.8593 0001350 267.4581  38.8567 15.02533907    18"
    ]
  },
  "56382": {
    "noradId": "56382",
    "tle": [
      "1 56382C 23061J   25301.11784722  .00010494  00000+0  77414-3 0  3019",
      "2 56382  43.0018 197.7038 0001285 270.0921  94.8276 15.02532108    18"
    ]
  },
  "56383": {
    "noradId": "56383",
    "tle": [
      "1 56383C 23061K   25301.11437500 -.00009510  00000+0 -70167-3 0  3016",
      "2 56383  43.0018 197.7524 0001344 263.5149  70.5762 15.02546141    17"
    ]
  },
  "56384": {
    "noradId": "56384",
    "tle": [
      "1 56384C 23061L   25301.11506944 -.00010674  00000+0 -78755-3 0  3010",
      "2 56384  43.0018 197.6200 0001348 265.1653 126.7820 15.02549118    16"
    ]
  },
  "56385": {
    "noradId": "56385",
    "tle": [
      "1 56385C 23061M   25301.11576389 -.00000866  00000+0 -63941-4 0  3015",
      "2 56385  43.0015 197.6593 0001436 275.4498 102.3104 15.02517739    17"
    ]
  },
  "56386": {
    "noradId": "56386",
    "tle": [
      "1 56386C 23061N   25301.11576389 -.00014198  00000+0 -10476-2 0  3012",
      "2 56386  43.0017 197.5274 0001342 264.1905 167.5828 15.02551458    11"
    ]
  },
  "56387": {
    "noradId": "56387",
    "tle": [
      "1 56387C 23061P   25301.11784722  .00012410  00000+0  91547-3 0  3017",
      "2 56387  43.0015 197.3900 0001281 267.7962 229.3546 15.02533070    12"
    ]
  },
  "56388": {
    "noradId": "56388",
    "tle": [
      "1 56388C 23061Q   25301.11715278  .00006676  00000+0  49257-3 0  3016",
      "2 56388  43.0019 197.8990 0001368 265.2621  11.7571 15.02528865    19"
    ]
  },
  "56389": {
    "noradId": "56389",
    "tle": [
      "1 56389C 23061R   25301.11576389 -.00003288  00000+0 -24261-3 0  3011",
      "2 56389  43.0017 197.5709 0001309 265.0630 148.6873 15.02540391    19"
    ]
  },
  "56391": {
    "noradId": "56391",
    "tle": [
      "1 56391C 23061T   25301.11715278  .00009500  00000+0  70093-3 0  3011",
      "2 56391  43.0016 197.4753 0001307 266.4463 190.8907 15.02526857    14"
    ]
  },
  "56392": {
    "noradId": "56392",
    "tle": [
      "1 56392C 23061U   25301.11993056  .00008564  00000+0  63186-3 0  3018",
      "2 56392  43.0017 185.3627 0001362 267.2786 191.0289 15.02529292    12"
    ]
  },
  "56393": {
    "noradId": "56393",
    "tle": [
      "1 56393C 23061V   25301.11993056 -.00010411  00000+0 -76817-3 0  3010",
      "2 56393  43.0011 197.4188 0001421 261.3965 228.9982 15.02548352    11"
    ]
  },
  "56394": {
    "noradId": "56394",
    "tle": [
      "1 56394C 23061W   25301.11923611 -.00001598  00000+0 -11788-3 0  3013",
      "2 56394  43.0012 185.2231 0001331 267.1545 247.5026 15.02540445    16"
    ]
  },
  "56395": {
    "noradId": "56395",
    "tle": [
      "1 56395C 23061X   25301.11993056  .00007107  00000+0  52446-3 0  3010",
      "2 56395  43.0017 185.2609 0001318 273.1916 227.2209 15.02523254    12"
    ]
  },
  "56396": {
    "noradId": "56396",
    "tle": [
      "1 56396C 23061Y   25301.11784722  .00010228  00000+0  75457-3 0  3014",
      "2 56396  43.0017 185.1612 0001327 268.1951 268.9967 15.02533220    16"
    ]
  },
  "56397": {
    "noradId": "56397",
    "tle": [
      "1 56397C 23061Z   25301.11437500  .00008899  00000+0  65661-3 0  3011",
      "2 56397  43.0018 185.3236 0001340 269.3723 188.9026 15.02529318    17"
    ]
  },
  "56398": {
    "noradId": "56398",
    "tle": [
      "1 56398C 23061AA  25301.11437500  .00010752  00000+0  79311-3 0  3010",
      "2 56398  43.0016 185.1363 0001281 272.3406 264.0793 15.02534859    14"
    ]
  },
  "56399": {
    "noradId": "56399",
    "tle": [
      "1 56399C 23061AB  25301.12756944  .00009654  00000+0  71218-3 0  3015",
      "2 56399  43.0017 185.1372 0001322 270.7384 307.0777 15.02534611    15"
    ]
  },
  "56400": {
    "noradId": "56400",
    "tle": [
      "1 56400C 23061AC  25301.11784722 -.00003374  00000+0 -24895-3 0  3016",
      "2 56400  43.0013 185.0440 0001325 266.0407 319.2388 15.02540951    13"
    ]
  },
  "56401": {
    "noradId": "56401",
    "tle": [
      "1 56401C 23061AD  25301.13173611  .00015916  00000+0  11245-2 0  3015",
      "2 56401  42.9996 171.9776 0001751 271.3107  21.5698 15.04146630    12"
    ]
  },
  "56403": {
    "noradId": "56403",
    "tle": [
      "1 56403C 23061AF  25301.11506944 -.00010254  00000+0 -75655-3 0  3012",
      "2 56403  43.0018 185.0740 0001325 262.8019 295.4083 15.02548943    13"
    ]
  },
  "56404": {
    "noradId": "56404",
    "tle": [
      "1 56404C 23061AG  25301.11715278 -.00020881  00000+0 -15407-2 0  3010",
      "2 56404  43.0016 184.9317 0001351 263.3363   6.2598 15.02555803    19"
    ]
  },
  "56405": {
    "noradId": "56405",
    "tle": [
      "1 56405C 23061AH  25301.11854167  .00001862  00000+0  13743-3 0  3010",
      "2 56405  43.0017 184.9986 0001263 271.1684 336.0189 15.02512866    10"
    ]
  },
  "56406": {
    "noradId": "56406",
    "tle": [
      "1 56406C 23061AJ  25301.11715278  .00009038  00000+0  66679-3 0  3019",
      "2 56406  43.0015 184.8138 0001340 262.4528  55.2295 15.02533198    12"
    ]
  },
  "56407": {
    "noradId": "56407",
    "tle": [
      "1 56407C 23061AK  25301.12062500  .00008775  00000+0  64755-3 0  3014",
      "2 56407  43.0015 184.9423 0001236 272.9453   3.4607 15.02521724    12"
    ]
  },
  "56408": {
    "noradId": "56408",
    "tle": [
      "1 56408C 23061AL  25301.11993056  .00005051  00000+0  37274-3 0  3013",
      "2 56408  43.0015 184.6918 0001325 269.8819 104.9462 15.02527726    13"
    ]
  },
  "56409": {
    "noradId": "56409",
    "tle": [
      "1 56409C 23061AM  25301.11854167  .00009394  00000+0  69315-3 0  3018",
      "2 56409  43.0016 184.8820 0001355 268.0224  27.1327 15.02526945    11"
    ]
  },
  "56410": {
    "noradId": "56410",
    "tle": [
      "1 56410C 23061AN  25301.11437500  .00008703  00000+0  64216-3 0  3016",
      "2 56410  43.0017 184.7160 0001280 268.2622  82.4787 15.02527821    19"
    ]
  },
  "56411": {
    "noradId": "56411",
    "tle": [
      "1 56411C 23061AP  25301.11993056  .00007668  00000+0  56579-3 0  3012",
      "2 56411  43.0012 184.8433 0001238 271.4638  43.2590 15.02527207    10"
    ]
  },
  "56412": {
    "noradId": "56412",
    "tle": [
      "1 56412C 23061AQ  25301.11715278  .00009478  00000+0  69921-3 0  3017",
      "2 56412  43.0017 184.6248 0001293 269.2741 126.5486 15.02533121    10"
    ]
  },
  "56413": {
    "noradId": "56413",
    "tle": [
      "1 56413C 23061AR  25301.11368056  .00004106  00000+0  30298-3 0  3014",
      "2 56413  43.0016 184.7618 0001201 269.1473  59.7919 15.02529970    17"
    ]
  },
  "56414": {
    "noradId": "56414",
    "tle": [
      "1 56414C 23061AS  25301.12131944  .00009986  00000+0  73667-3 0  3018",
      "2 56414  43.0014 184.5467 0001301 269.8516 172.5775 15.02533224    13"
    ]
  },
  "56416": {
    "noradId": "56416",
    "tle": [
      "1 56416C 23061AU  25301.11368056  .00008377  00000+0  61796-3 0  3018",
      "2 56416  43.0016 172.2340 0001230 271.1685 218.0174 15.02537122    15"
    ]
  },
  "56417": {
    "noradId": "56417",
    "tle": [
      "1 56417C 23061AV  25301.11715278 -.00003518  00000+0 -25955-3 0  3012",
      "2 56417  43.0018 184.5861 0001362 263.8265 150.0290 15.02539728    18"
    ]
  },
  "56418": {
    "noradId": "56418",
    "tle": [
      "1 56418C 23061AW  25301.11784722  .00005885  00000+0  43426-3 0  3013",
      "2 56418  43.0016 172.0361 0001363 272.1286 311.7666 15.02528880    11"
    ]
  },
  "56419": {
    "noradId": "56419",
    "tle": [
      "1 56419C 23061AX  25301.12062500 -.00015596  00000+0 -11508-2 0  3015",
      "2 56419  43.0017 184.5240 0001366 264.4441 186.2574 15.02550583    15"
    ]
  },
  "56420": {
    "noradId": "56420",
    "tle": [
      "1 56420C 23061AY  25301.11993056 -.00011971  00000+0 -88333-3 0  3019",
      "2 56420  43.0015 171.9813 0001349 264.7715 348.4348 15.02547098    17"
    ]
  },
  "56421": {
    "noradId": "56421",
    "tle": [
      "1 56421C 23061AZ  25301.11576389  .00007998  00000+0  59006-3 0  3013",
      "2 56421  43.0014 172.2601 0001237 267.0728 215.3756 15.02535167    11"
    ]
  },
  "56422": {
    "noradId": "56422",
    "tle": [
      "1 56422C 23061BA  25301.11993056 -.00007807  00000+0 -57607-3 0  3014",
      "2 56422  43.0016 171.8965 0001415 267.0438  22.2169 15.02542452    16"
    ]
  },
  "56423": {
    "noradId": "56423",
    "tle": [
      "1 56423C 23061BB  25301.11576389  .00010359  00000+0  76413-3 0  3011",
      "2 56423  43.0016 171.9603 0001357 268.1543 340.5093 15.02536624    17"
    ]
  },
  "56424": {
    "noradId": "56424",
    "tle": [
      "1 56424C 23061BC  25301.12062500  .00009693  00000+0  71499-3 0  3016",
      "2 56424  43.0017 171.8037 0001311 269.1218  59.9581 15.02538330    18"
    ]
  },
  "56425": {
    "noradId": "56425",
    "tle": [
      "1 56425C 23061BD  25301.12131944  .00007144  00000+0  52703-3 0  3012",
      "2 56425  43.0017 171.8421 0001260 269.1122  45.7016 15.02534267    14"
    ]
  }
}